STARLINK-2144           
1 47734U 21017N   23148.24038899  .00002780  00000+0  20549-3 0  9996
2 47734  53.0534  94.6328 0001273  86.6831 273.4304 15.06394275124545
STARLINK-2146           
1 47735U 21017P   23148.92000853  .00014221  00000+0  97140-3 0  9995
2 47735  53.0563  16.7476 0001431  75.9634 284.1514 15.06409881125672
STARLINK-2147           
1 47736U 21017Q   23149.07064763  .00019033  00000+0  12926-2 0  9997
2 47736  53.0538  80.9055 0001147  86.9464 273.1656 15.06417570124160
STARLINK-2148           
1 47737U 21017R   23148.67593421  .00001607  00000+0  56384-4 0  9997
2 47737  53.0543 292.5702 0000877  82.2496 277.8606 15.35748979126902
STARLINK-2149           
1 47738U 21017S   23149.11122249  .00011846  00000+0  81243-3 0  9991
2 47738  53.0542  81.0007 0001282  91.0513 269.0622 15.06418250124161
STARLINK-2150           
1 47739U 21017T   23148.86745763  .00000204  00000+0  32602-4 0  9997
2 47739  53.0557 106.8163 0001186  90.3944 269.7181 15.06402814123783
STARLINK-2152           
1 47740U 21017U   23149.11395054  .00002532  00000+0  18876-3 0  9994
2 47740  53.0556  90.7110 0001480 102.2570 257.8585 15.06413236124026
STARLINK-2154           
1 47741U 21017V   23148.86330979 -.00003573  00000+0 -22102-3 0  9996
2 47741  53.0530  91.8408 0001368  77.5392 282.5750 15.06408727123995
STARLINK-2156           
1 47742U 21017W   23149.07433283  .00014872  00000+0  10148-2 0  9991
2 47742  53.0543  80.8872 0001114  88.9239 271.1878 15.06414815124168
STARLINK-2157           
1 47743U 21017X   23148.83474930  .00011884  00000+0  81520-3 0  9992
2 47743  53.0554  81.9726 0001331  89.2821 270.8320 15.06407711124124
STARLINK-2158           
1 47744U 21017Y   23149.07338370  .00015850  00000+0  10802-2 0  9998
2 47744  53.0535  80.8480 0001052 105.7319 254.3786 15.06413614124161
STARLINK-2159           
1 47745U 21017Z   23148.84121038  .00008269  00000+0  57333-3 0  9991
2 47745  53.0547  91.9352 0001251  91.4590 268.6543 15.06400742123985
STARLINK-2160           
1 47746U 21017AA  23149.09921119  .00007315  00000+0  50933-3 0  9998
2 47746  53.0541  90.7763 0000973  87.7301 272.3800 15.06409001124022
STARLINK-2161           
1 47747U 21017AB  23149.09645228  .00017365  00000+0  11810-2 0  9999
2 47747  53.0546  80.7967 0001228  84.1882 275.9247 15.06425235124168
STARLINK-2162           
1 47748U 21017AC  23149.08908066  .00015114  00000+0  10309-2 0  9993
2 47748  53.0564  80.8294 0001548  95.8576 264.2590 15.06415896124161
STARLINK-2163           
1 47749U 21017AD  23149.10381806  .00016503  00000+0  11236-2 0  9997
2 47749  53.0546  80.7608 0001282  79.4343 280.6790 15.06419346124163
STARLINK-2164           
1 47750U 21017AE  23149.08171005  .00019683  00000+0  13358-2 0  9993
2 47750  53.0537  80.8611 0001342  78.9677 281.1463 15.06421894124165
STARLINK-2168           
1 47751U 21017AF  23149.04575639  .00001450  00000+0  11620-3 0  9995
2 47751  53.0543  71.0175 0001312  76.0232 284.0903 15.06404526124291
STARLINK-2169           
1 47752U 21017AG  23149.14574214  .00015297  00000+0  10425-2 0  9990
2 47752  53.0534  85.5713 0001097  93.3241 266.7874 15.06439506124102
STARLINK-2170           
1 47753U 21017AH  23148.85593672 -.00000021  00000+0  17494-4 0  9992
2 47753  53.0548  91.8702 0001423  81.2708 278.8442 15.06413189123982
STARLINK-2171           
1 47754U 21017AJ  23149.15818705  .00007198  00000+0  50151-3 0  9991
2 47754  53.0549  90.5196 0001293  90.2180 269.8957 15.06408849124031
STARLINK-2174           
1 47756U 21017AL  23149.15449977  .00014829  00000+0  10120-2 0  9994
2 47756  53.0537  90.5294 0001057  93.7652 266.3458 15.06412672124036
STARLINK-2175           
1 47757U 21017AM  23149.13974642  .00005998  00000+0  42102-3 0  9998
2 47757  53.0544  90.5998 0001319 103.8764 256.2372 15.06416571124039
STARLINK-2178           
1 47760U 21017AQ  23149.17199734  .00002640  00000+0  19600-3 0  9995
2 47760  53.0541 100.4533 0001512 114.4527 245.6620 15.06411138123891
STARLINK-2179           
1 47761U 21017AR  23148.87068458  .00003623  00000+0  26194-3 0  9998
2 47761  53.0552  91.8048 0001342  82.5879 277.5262 15.06408105123991
STARLINK-2180           
1 47762U 21017AS  23149.16232292  .00000631  00000+0  61250-4 0  9990
2 47762  53.0558 105.5079 0001430  84.0044 276.1108 15.06413389123820
STARLINK-2181           
1 47763U 21017AT  23149.11164900  .00011325  00000+0  77717-3 0  9992
2 47763  53.0544  95.7274 0001337  86.0314 274.0827 15.06436524123956
STARLINK-2182           
1 47764U 21017AU  23149.14758736  .00002906  00000+0  21383-3 0  9995
2 47764  53.0538 105.5628 0001453  89.1032 271.0124 15.06411115123825
STARLINK-2184           
1 47766U 21017AW  23149.16506441  .00001933  00000+0  14856-3 0  9999
2 47766  53.0551 105.4763 0001252  92.0071 268.1062 15.06411637123821
STARLINK-2185           
1 47767U 21017AX  23149.12501227  .00007049  00000+0  49142-3 0  9993
2 47767  53.0536  90.6637 0001160  88.0660 272.0462 15.06417991124038
