OBJECT_NAME,OBJECT_ID,EPOCH,MEAN_MOTION,ECCENTRICITY,INCLINATION,RA_OF_ASC_NODE,ARG_OF_PERICENTER,MEAN_ANOMALY,EPHEMERIS_TYPE,CLASSIFICATION_TYPE,NORAD_CAT_ID,ELEMENT_SET_NO,REV_AT_EPOCH,BSTAR,MEAN_MOTION_DOT,MEAN_MOTION_DDOT
STARLINK-2144,2021-017N,2023-05-28T05:46:09.608736,15.06394275,.0001273,53.0534,94.6328,86.6831,273.4304,0,U,47734,999,12454,.20549E-3,.278E-4,0
STARLINK-2146,2021-017P,2023-05-28T22:04:48.736992,15.06409881,.0001431,53.0563,16.7476,75.9634,284.1514,0,U,47735,999,12567,.9714E-3,.14221E-3,0
STARLINK-2147,2021-017Q,2023-05-29T01:41:43.955232,15.06417570,.0001147,53.0538,80.9055,86.9464,273.1656,0,U,47736,999,12416,.12926E-2,.19033E-3,0
STARLINK-2148,2021-017R,2023-05-28T16:13:20.715744,15.35748979,.0000877,53.0543,292.5702,82.2496,277.8606,0,U,47737,999,12690,.56384E-4,.1607E-4,0
STARLINK-2149,2021-017S,2023-05-29T02:40:09.623136,15.06418250,.0001282,53.0542,81.0007,91.0513,269.0622,0,U,47738,999,12416,.81243E-3,.11846E-3,0
STARLINK-2150,2021-017T,2023-05-28T20:49:08.339232,15.06402814,.0001186,53.0557,106.8163,90.3944,269.7181,0,U,47739,999,12378,.32602E-4,.204E-5,0
STARLINK-2152,2021-017U,2023-05-29T02:44:05.326656,15.06413236,.000148,53.0556,90.7110,102.2570,257.8585,0,U,47740,999,12402,.18876E-3,.2532E-4,0
STARLINK-2154,2021-017V,2023-05-28T20:43:09.965856,15.06408727,.0001368,53.0530,91.8408,77.5392,282.5750,0,U,47741,999,12399,-.22102E-3,-.3573E-4,0
STARLINK-2156,2021-017W,2023-05-29T01:47:02.356512,15.06414815,.0001114,53.0543,80.8872,88.9239,271.1878,0,U,47742,999,12416,.10148E-2,.14872E-3,0
STARLINK-2157,2021-017X,2023-05-28T20:02:02.339520,15.06407711,.0001331,53.0554,81.9726,89.2821,270.8320,0,U,47743,999,12412,.8152E-3,.11884E-3,0
STARLINK-2158,2021-017Y,2023-05-29T01:45:40.351680,15.06413614,.0001052,53.0535,80.8480,105.7319,254.3786,0,U,47744,999,12416,.10802E-2,.1585E-3,0
STARLINK-2159,2021-017Z,2023-05-28T20:11:20.576832,15.06400742,.0001251,53.0547,91.9352,91.4590,268.6543,0,U,47745,999,12398,.57333E-3,.8269E-4,0
STARLINK-2160,2021-017AA,2023-05-29T02:22:51.846816,15.06409001,.0000973,53.0541,90.7763,87.7301,272.3800,0,U,47746,999,12402,.50933E-3,.7315E-4,0
STARLINK-2161,2021-017AB,2023-05-29T02:18:53.476992,15.06425235,.0001228,53.0546,80.7967,84.1882,275.9247,0,U,47747,999,12416,.1181E-2,.17365E-3,0
STARLINK-2162,2021-017AC,2023-05-29T02:08:16.569024,15.06415896,.0001548,53.0564,80.8294,95.8576,264.2590,0,U,47748,999,12416,.10309E-2,.15114E-3,0
STARLINK-2163,2021-017AD,2023-05-29T02:29:29.880384,15.06419346,.0001282,53.0546,80.7608,79.4343,280.6790,0,U,47749,999,12416,.11236E-2,.16503E-3,0
STARLINK-2164,2021-017AE,2023-05-29T01:57:39.748320,15.06421894,.0001342,53.0537,80.8611,78.9677,281.1463,0,U,47750,999,12416,.13358E-2,.19683E-3,0
STARLINK-2168,2021-017AF,2023-05-29T01:05:53.352096,15.06404526,.0001312,53.0543,71.0175,76.0232,284.0903,0,U,47751,999,12429,.1162E-3,.145E-4,0
STARLINK-2169,2021-017AG,2023-05-29T03:29:52.120896,15.06439506,.0001097,53.0534,85.5713,93.3241,266.7874,0,U,47752,999,12410,.10425E-2,.15297E-3,0
STARLINK-2170,2021-017AH,2023-05-28T20:32:32.932608,15.06413189,.0001423,53.0548,91.8702,81.2708,278.8442,0,U,47753,999,12398,.17494E-4,-.21E-6,0
STARLINK-2171,2021-017AJ,2023-05-29T03:47:47.361120,15.06408849,.0001293,53.0549,90.5196,90.2180,269.8957,0,U,47754,999,12403,.50151E-3,.7198E-4,0
STARLINK-2174,2021-017AL,2023-05-29T03:42:28.780128,15.06412672,.0001057,53.0537,90.5294,93.7652,266.3458,0,U,47756,999,12403,.1012E-2,.14829E-3,0
STARLINK-2175,2021-017AM,2023-05-29T03:21:14.090688,15.06416571,.0001319,53.0544,90.5998,103.8764,256.2372,0,U,47757,999,12403,.42102E-3,.5998E-4,0
STARLINK-2178,2021-017AQ,2023-05-29T04:07:40.570176,15.06411138,.0001512,53.0541,100.4533,114.4527,245.6620,0,U,47760,999,12389,.196E-3,.264E-4,0
STARLINK-2179,2021-017AR,2023-05-28T20:53:47.147712,15.06408105,.0001342,53.0552,91.8048,82.5879,277.5262,0,U,47761,999,12399,.26194E-3,.3623E-4,0
STARLINK-2180,2021-017AS,2023-05-29T03:53:44.700288,15.06413389,.000143,53.0558,105.5079,84.0044,276.1108,0,U,47762,999,12382,.6125E-4,.631E-5,0
STARLINK-2181,2021-017AT,2023-05-29T02:40:46.473600,15.06436524,.0001337,53.0544,95.7274,86.0314,274.0827,0,U,47763,999,12395,.77717E-3,.11325E-3,0
STARLINK-2182,2021-017AU,2023-05-29T03:32:31.547904,15.06411115,.0001453,53.0538,105.5628,89.1032,271.0124,0,U,47764,999,12382,.21383E-3,.2906E-4,0
STARLINK-2184,2021-017AW,2023-05-29T03:57:41.565024,15.06411637,.0001252,53.0551,105.4763,92.0071,268.1062,0,U,47766,999,12382,.14856E-3,.1933E-4,0
STARLINK-2185,2021-017AX,2023-05-29T03:00:01.060128,15.06417991,.000116,53.0536,90.6637,88.0660,272.0462,0,U,47767,999,12403,.49142E-3,.7049E-4,0
